NORAD_CAT_ID,OBJECT_NAME,OBJECT_TYPE,EPOCH,MEAN_MOTION,ECCENTRICITY,INCLINATION,RA_OF_ASC_NODE,ARG_OF_PERICENTER,MEAN_ANOMALY,BSTAR,MEAN_MOTION_DOT,MEAN_MOTION_DDOT,TLE_LINE0,TLE_LINE1,TLE_LINE2,SEMIMAJOR_AXIS,PERIOD,APOGEE,PERIGEE,DECAYED
55662.0,STARLINK-5479,PAYLOAD,2023-10-07 01:52:35,14.98321739,0.0003097,70.0004,235.0687,270.3746,89.7058,-1.8928e-05,-3.19e-06,0.0,0 STARLINK-5479,1 55662U 23021AL  23280.07819366 -.00000319  00000-0 -18928-4 0  9994,2 55662  70.0004 235.0687 0003097 270.3746  89.7058 14.98321739 36470,6950.218,96.108,574.236,569.931,0.0
55662.0,STARLINK-5479,PAYLOAD,2023-10-07 06:40:59,14.98332074,0.0002907,70.0013,234.5644,268.1545,91.9282,4.6429e-05,4.61e-06,0.0,0 STARLINK-5479,1 55662U 23021AL  23280.27846581  .00000461  00000-0  46429-4 0  9998,2 55662  70.0013 234.5644 0002907 268.1545  91.9282 14.98332074 36500,6950.186,96.107,574.072,570.031,0.0
55662.0,STARLINK-5479,PAYLOAD,2023-10-07 21:06:12,14.98322726,0.000314,70.0008,233.0491,268.4171,91.6629,2.9024e-05,2.53e-06,0.0,0 STARLINK-5479,1 55662U 23021AL  23280.87931176  .00000253  00000-0  29024-4 0  9990,2 55662  70.0008 233.0491 0003140 268.4171  91.6629 14.98322726 36893,6950.215,96.107,574.263,569.898,0.0
55662.0,STARLINK-5479,PAYLOAD,2023-10-08 06:43:00,14.98335827,0.0003153,70.0008,232.0397,268.9437,91.1361,9.403e-05,1.029e-05,0.0,0 STARLINK-5479,1 55662U 23021AL  23281.27986239  .00001029  00000-0  94030-4 0  9996,2 55662  70.0008 232.0397 0003153 268.9437  91.1361 14.98335827 36659,6950.175,96.107,574.231,569.848,0.0
55662.0,STARLINK-5479,PAYLOAD,2023-10-08 21:08:12,14.98332181,0.0003057,70.0006,230.5249,270.5403,89.5406,0.00013172,1.479e-05,0.0,0 STARLINK-5479,1 55662U 23021AL  23281.88070220  .00001479  00000-0  13172-3 0  9993,2 55662  70.0006 230.5249 0003057 270.5403  89.5406 14.98332181 37046,6950.186,96.107,574.176,569.926,0.0
55662.0,STARLINK-5479,PAYLOAD,2023-10-09 03:32:43,14.98360633,0.0003163,70.0008,229.8519,269.9823,90.0974,-0.00015488,-1.942e-05,0.0,0 STARLINK-5479,1 55662U 23021AL  23282.14773120 -.00001942  00000-0 -15488-3 0  9991,2 55662  70.0008 229.8519 0003163 269.9823  90.0974 14.98360633 36785,6950.098,96.105,574.161,569.765,0.0
55662.0,STARLINK-5479,PAYLOAD,2023-10-09 06:45:00,14.98346581,0.0002997,70.001,229.5151,269.8505,90.2311,0.00015882,1.803e-05,0.0,0 STARLINK-5479,1 55662U 23021AL  23282.28125044  .00001803  00000-0  15882-3 0  9994,2 55662  70.0010 229.5151 0002997 269.8505  90.2311 14.98346581 37107,6950.142,96.106,574.09,569.924,0.0
55662.0,STARLINK-5479,PAYLOAD,2023-10-09 14:45:41,14.98328876,0.0002988,70.0011,228.673,271.7957,88.286,-2.8065e-05,-4.28e-06,0.0,0 STARLINK-5479,1 55662U 23021AL  23282.61506541 -.00000428  00000-0 -28065-4 0  9998,2 55662  70.0011 228.6730 0002988 271.7957  88.2860 14.98328876 36858,6950.196,96.107,574.138,569.985,0.0
55662.0,STARLINK-5479,PAYLOAD,2023-10-09 21:10:14,14.98326229,0.0002833,70.001,228.0,272.8976,87.1858,-1.9331e-05,-3.24e-06,0.0,0 STARLINK-5479,1 55662U 23021AL  23282.88210764 -.00000324  00000-0 -19331-4 0  9997,2 55662  70.0010 228.0000 0002833 272.8976  87.1858 14.98326229 37196,6950.205,96.107,574.039,570.101,0.0
55662.0,STARLINK-5479,PAYLOAD,2023-10-10 13:11:34,14.98359007,0.0002477,70.0025,226.3169,276.8172,83.2705,-0.00062816,-7.585e-05,0.0,0 STARLINK-5479,1 55662U 23021AL  23283.54970048 -.00007585  00000-0 -62816-3 0  9990,2 55662  70.0025 226.3169 0002477 276.8172  83.2705 14.98359007 37294,6950.103,96.105,573.69,570.247,0.0
55662.0,STARLINK-5479,PAYLOAD,2023-10-10 21:12:15,14.98336979,0.000213,70.0022,225.4761,273.9576,86.134,-0.00026549,-3.26e-05,0.0,0 STARLINK-5479,1 55662U 23021AL  23283.88350929 -.00003260  00000-0 -26549-3 0  9996,2 55662  70.0022 225.4761 0002130 273.9576  86.1340 14.98336979 37347,6950.171,96.107,573.517,570.556,0.0
55662.0,STARLINK-5479,PAYLOAD,2023-10-11 02:00:39,14.98329911,0.0002351,70.002,224.9716,270.6195,89.4695,-0.00024547,-3.02e-05,0.0,0 STARLINK-5479,1 55662U 23021AL  23284.08379233 -.00003020  00000-0 -24547-3 0  9998,2 55662  70.0020 224.9716 0002351 270.6195  89.4695 14.98329911 37072,6950.193,96.107,573.692,570.424,0.0
55662.0,STARLINK-5479,PAYLOAD,2023-10-11 13:13:35,14.98329343,0.0002669,70.0016,223.7929,270.8511,89.2342,-0.0001749,-2.179e-05,0.0,0 STARLINK-5479,1 55662U 23021AL  23284.55111094 -.00002179  00000-0 -17490-3 0  9992,2 55662  70.0016 223.7929 0002669 270.8511  89.2342 14.98329343 37443,6950.195,96.107,573.915,570.205,0.0
55662.0,STARLINK-5479,PAYLOAD,2023-10-12 03:38:48,14.98329863,0.000283,70.0009,222.2788,266.4206,93.6629,5.6786e-05,5.85e-06,0.0,0 STARLINK-5479,1 55662U 23021AL  23285.15194656  .00000585  00000-0  56786-4 0  9993,2 55662  70.0009 222.2788 0002830 266.4206  93.6629 14.98329863 37235,6950.193,96.107,574.025,570.091,0.0
55662.0,STARLINK-5479,PAYLOAD,2023-10-12 13:15:36,14.98333024,0.0002921,70.0014,221.2676,270.516,89.5665,3.3712e-05,3.09e-06,0.0,0 STARLINK-5479,1 55662U 23021AL  23285.55250460  .00000309  00000-0  33712-4 0  9991,2 55662  70.0014 221.2676 0002921 270.5160  89.5665 14.98333024 37599,6950.184,96.107,574.079,570.018,0.0
55662.0,STARLINK-5479,PAYLOAD,2023-10-12 22:52:25,14.9832349,0.0002895,70.0013,220.2583,270.9856,89.0972,0.00012973,1.455e-05,0.0,0 STARLINK-5479,1 55662U 23021AL  23285.95306945  .00001455  00000-0  12973-3 0  9993,2 55662  70.0013 220.2583 0002895 270.9856  89.0972 14.98323490 37659,6950.213,96.107,574.09,570.066,0.0
55662.0,STARLINK-5479,PAYLOAD,2023-10-13 03:40:48,14.9833191,0.0002735,70.0016,219.7532,263.6669,96.4178,0.00018133,2.071e-05,0.0,0 STARLINK-5479,1 55662U 23021AL  23286.15334237  .00002071  00000-0  18133-3 0  9990,2 55662  70.0016 219.7532 0002735 263.6669  96.4178 14.98331910 37389,6950.187,96.107,573.953,570.151,0.0
55662.0,STARLINK-5479,PAYLOAD,2023-10-13 13:17:37,14.98338673,0.0002846,70.0018,218.7434,266.6841,93.3992,1.643e-05,1.03e-06,0.0,0 STARLINK-5479,1 55662U 23021AL  23286.55390085  .00000103  00000-0  16430-4 0  9990,2 55662  70.0018 218.7434 0002846 266.6841  93.3992 14.98338673 37742,6950.166,96.106,574.009,570.053,0.0
55662.0,STARLINK-5479,PAYLOAD,2023-10-13 21:18:17,14.98330451,0.0002963,70.0012,217.9006,269.6537,90.4283,7.3875e-05,7.89e-06,0.0,0 STARLINK-5479,1 55662U 23021AL  23286.88770436  .00000789  00000-0  73875-4 0  9994,2 55662  70.0012 217.9006 0002963 269.6537  90.4283 14.98330451 37799,6950.191,96.107,574.116,569.997,0.0
55662.0,STARLINK-5479,PAYLOAD,2023-10-14 03:42:49,14.98338992,0.0002668,70.0016,217.2281,268.92,91.1654,5.5825e-05,5.73e-06,0.0,0 STARLINK-5479,1 55662U 23021AL  23287.15473916  .00000573  00000-0  55825-4 0  9994,2 55662  70.0016 217.2281 0002668 268.9200  91.1654 14.98338992 37532,6950.165,96.106,573.884,570.176,0.0
55662.0,STARLINK-5479,PAYLOAD,2023-10-14 13:19:38,14.98324804,0.0003088,70.0016,216.2186,266.6659,93.4147,-0.00013498,-1.703e-05,0.0,0 STARLINK-5479,1 55662U 23021AL  23287.55531029 -.00001703  00000-0 -13498-3 0  9995,2 55662  70.0016 216.2186 0003088 266.6659  93.4147 14.98324804 37893,6950.209,96.107,574.22,569.928,0.0
55662.0,STARLINK-5479,PAYLOAD,2023-10-14 21:20:19,14.98317814,0.0002746,70.0017,215.3781,268.2772,91.8073,-0.00014584,-1.832e-05,0.0,0 STARLINK-5479,1 55662U 23021AL  23287.88911815 -.00001832  00000-0 -14584-3 0  9996,2 55662  70.0017 215.3781 0002746 268.2772  91.8073 14.98317814 37645,6950.231,96.108,574.004,570.187,0.0
55662.0,STARLINK-5479,PAYLOAD,2023-10-15 05:21:00,14.98319287,0.0002837,70.0018,214.5362,266.0292,94.0542,-0.00019637,-2.435e-05,0.0,0 STARLINK-5479,1 55662U 23021AL  23288.22292088 -.00002435  00000-0 -19637-3 0  9993,2 55662  70.0018 214.5362 0002837 266.0292  94.0542 14.98319287 37996,6950.226,96.108,574.063,570.119,0.0
55662.0,STARLINK-5479,PAYLOAD,2023-10-15 19:46:11,14.98328269,0.0003253,70.0007,213.0223,266.8476,93.2311,4.8042e-05,4.8e-06,0.0,0 STARLINK-5479,1 55662U 23021AL  23288.82374899  .00000480  00000-0  48042-4 0  9999,2 55662  70.0007 213.0223 0003253 266.8476  93.2311 14.98328269 37781,6950.198,96.107,574.324,569.802,0.0
55662.0,STARLINK-5479,PAYLOAD,2023-10-15 21:22:19,14.98330058,0.0003206,70.0007,212.8538,266.6704,93.4089,5.278e-05,5.37e-06,0.0,0 STARLINK-5479,1 55662U 23021AL  23288.89050798  .00000537  00000-0  52780-4 0  9992,2 55662  70.0007 212.8538 0003206 266.6704  93.4089 14.98330058 38095,6950.193,96.107,574.286,569.829,0.0
55662.0,STARLINK-5479,PAYLOAD,2023-10-16 05:22:59,14.98344848,0.0002974,70.0012,212.0119,263.4347,96.6474,9.8601e-05,1.084e-05,0.0,0 STARLINK-5479,1 55662U 23021AL  23289.22429674  .00001084  00000-0  98601-4 0  9993,2 55662  70.0012 212.0119 0002974 263.4347  96.6474 14.98344848 37844,6950.147,96.106,574.079,569.945,0.0
55662.0,STARLINK-5479,PAYLOAD,2023-10-16 11:47:32,14.98335407,0.0002555,70.0023,211.3393,264.1013,95.9855,2.2268e-06,-6.6e-07,0.0,0 STARLINK-5479,1 55662U 23021AL  23289.49134575 -.00000066  00000-0  22268-5 0  9992,2 55662  70.0023 211.3393 0002555 264.1013  95.9855 14.98335407 37885,6950.176,96.107,573.817,570.265,0.0
55662.0,STARLINK-5479,PAYLOAD,2023-10-16 18:12:04,14.98323554,0.0002759,70.0028,210.6661,264.6595,95.4249,0.00022916,2.642e-05,0.0,0 STARLINK-5479,1 55662U 23021AL  23289.75838678  .00002642  00000-0  22916-3 0  9995,2 55662  70.0028 210.6661 0002759 264.6595  95.4249 14.98323554 38227,6950.213,96.107,573.995,570.16,0.0
55662.0,STARLINK-5479,PAYLOAD,2023-10-17 11:49:33,14.98326647,0.0002462,70.0027,208.813,278.5616,81.5264,0.00011912,1.329e-05,0.0,0 STARLINK-5479,1 55662U 23021AL  23290.49275133  .00001329  00000-0  11912-3 0  9994,2 55662  70.0027 208.8130 0002462 278.5616  81.5264 14.98326647 38336,6950.203,96.107,573.779,570.357,0.0
55662.0,STARLINK-5479,PAYLOAD,2023-10-18 02:14:45,14.98334834,0.0002866,70.0019,207.3,266.8696,93.2135,-2.3819e-05,-3.77e-06,0.0,0 STARLINK-5479,1 55662U 23021AL  23291.09358601 -.00000377  00000-0 -23819-4 0  9997,2 55662  70.0019 207.3000 0002866 266.8696  93.2135 14.98334834 38427,6950.178,96.107,574.035,570.051,0.0
